{
    "links": {
        "self": "http://www.neowsapp.com/rest/v1/neo/3838781?api_key=iIulBulltgU6a56xZRHN4H3l9WmuAYTsLGpBGhQ2"
    },
    "id": "3838781",
    "neo_reference_id": "3838781",
    "name": "(2019 CP5)",
    "designation": "2019 CP5",
    "nasa_jpl_url": "http://ssd.jpl.nasa.gov/sbdb.cgi?sstr=3838781",
    "absolute_magnitude_h": 26.5,
    "estimated_diameter": {
        "kilometers": {
            "estimated_diameter_min": 0.0133215567,
            "estimated_diameter_max": 0.0297879063
        },
        "meters": {
            "estimated_diameter_min": 13.3215566698,
            "estimated_diameter_max": 29.7879062798
        },
        "miles": {
            "estimated_diameter_min": 0.008277629,
            "estimated_diameter_max": 0.0185093411
        },
        "feet": {
            "estimated_diameter_min": 43.7058959846,
            "estimated_diameter_max": 97.7293544391
        }
    },
    "is_potentially_hazardous_asteroid": false,
    "close_approach_data": [
        {
            "close_approach_date": "2019-02-11",
            "close_approach_date_full": "2019-Feb-11 05:16",
            "epoch_date_close_approach": 1549862160000,
            "relative_velocity": {
                "kilometers_per_second": "13.7751081291",
                "kilometers_per_hour": "49590.3892648226",
                "miles_per_hour": "30813.5393740227"
            },
            "miss_distance": {
                "astronomical": "0.0232597392",
                "lunar": "9.0480385488",
                "kilometers": "3479607.441075504",
                "miles": "2162127.8046857952"
            },
            "orbiting_body": "Earth"
        }
    ],
    "orbital_data": {
        "orbit_id": "2",
        "orbit_determination_date": "2019-02-15 07:00:34",
        "first_observation_date": "2019-02-12",
        "last_observation_date": "2019-02-15",
        "data_arc_in_days": 3,
        "observations_used": 60,
        "orbit_uncertainty": "8",
        "minimum_orbit_intersection": ".0232524",
        "jupiter_tisserand_invariant": "4.007",
        "epoch_osculation": "2458527.5",
        "eccentricity": ".443624727554119",
        "semi_major_axis": "1.709472462539657",
        "inclination": "20.42249836296321",
        "ascending_node_longitude": "143.5157236206298",
        "orbital_period": "816.3785602492833",
        "perihelion_distance": ".9511082070842327",
        "perihelion_argument": "323.0972871190918",
        "aphelion_distance": "2.467836717995081",
        "perihelion_time": "2458497.090963099926",
        "mean_anomaly": "13.40953059899548",
        "mean_motion": ".4409718940806984",
        "equinox": "J2000",
        "orbit_class": {
            "orbit_class_type": "APO",
            "orbit_class_description": "Near-Earth asteroid orbits which cross the Earth’s orbit similar to that of 1862 Apollo",
            "orbit_class_range": "a (semi-major axis) > 1.0 AU; q (perihelion) < 1.017 AU"
        }
    },
    "is_sentry_object": false
}